SL-3 R/B                
1 13403U 82079B   25341.22970376  .00009309  00000+0  38512-3 0  9990
2 13403  81.1472 302.1551 0026899 116.7547 243.6443 15.23493415363610
SL-14 R/B               
1 13553U 82092B   25341.11216251  .00000905  00000+0  99221-4 0  9992
2 13553  82.5687 227.9744 0018918 247.1089 272.8582 14.86546969315177
SL-3 R/B                
1 13819U 83010B   25341.13140486  .00020826  00000+0  46509-3 0  9990
2 13819  81.1040 115.4633 0017409  10.6912 349.4698 15.43235870343653
SL-3 R/B                
1 14208U 83075B   25341.25003126  .00014953  00000+0  42571-3 0  9995
2 14208  97.6100 337.5495 0022094 195.2806 164.7772 15.35970962315958
COSMOS 1536             
1 14699U 84013A   25341.02255514  .00009181  00000+0  39487-3 0  9996
2 14699  82.5452 199.8339 0013292 247.7461 112.2366 15.22423521258516
SL-14 R/B               
1 14820U 84027B   25341.23547796  .00000976  00000+0  10912-3 0  9991
2 14820  82.5408 331.7185 0016425 280.8416  79.0952 14.85865414233904
SL-8 R/B                
1 15483U 85006B   25341.24838484  .00000516  00000+0  17991-3 0  9997
2 15483  74.0466  71.2377 0018442   4.8728  25.5358 14.37716406140748
SL-12 R/B(2)            
1 15772U 85042D   25341.27862365  .00000304  00000+0  15844-3 0  9996
2 15772  71.1084 282.9567 0037705 269.5639 252.8313 14.21949461101250
SL-14 R/B               
1 15945U 85069B   25341.31571428  .00001135  00000+0  12578-3 0  9993
2 15945  82.5263 111.8018 0019856 135.3741 224.9078 14.86314559159110
SL-16 R/B               
1 16182U 85097B   25340.99040572 -.00000014  00000+0  17089-4 0  9991
2 16182  71.0028 335.7076 0006316  19.8901  47.3914 14.16581670 74102
SL-14 R/B               
1 16496U 86006B   25341.31538983  .00001219  00000+0  12763-3 0  9995
2 16496  82.5265 346.6557 0075735 218.0051 141.5810 14.86661136135489
COSMOS 1743             
1 16719U 86034A   25340.98030163  .00038194  00000+0  63879-3 0  9999
2 16719  82.5341 170.5718 0004728 278.8374  81.2342 15.51713098165842
