CCSDS_OMM_VERS = 2.0
CREATION_DATE  = 
ORIGINATOR     = 

OBJECT_NAME    = SL-3 R/B
OBJECT_ID      = 1982-079B
CENTER_NAME    = EARTH
REF_FRAME      = TEME
TIME_SYSTEM    = UTC
MEAN_ELEMENT_THEORY = SGP/SGP4

EPOCH          = 2025-12-07T05:30:46.404864
MEAN_MOTION    = 15.23493415
ECCENTRICITY   = .00268996
INCLINATION    = 81.1472
RA_OF_ASC_NODE = 302.1551
ARG_OF_PERICENTER = 116.7547
MEAN_ANOMALY   = 243.6443

EPHEMERIS_TYPE = 0
CLASSIFICATION_TYPE = U
NORAD_CAT_ID   = 13403
ELEMENT_SET_NO = 999
REV_AT_EPOCH   = 36361
BSTAR          = .38511546E-3
MEAN_MOTION_DOT = .9309E-4
MEAN_MOTION_DDOT = 0

CCSDS_OMM_VERS = 2.0
CREATION_DATE  = 
ORIGINATOR     = 

OBJECT_NAME    = SL-14 R/B
OBJECT_ID      = 1982-092B
CENTER_NAME    = EARTH
REF_FRAME      = TEME
TIME_SYSTEM    = UTC
MEAN_ELEMENT_THEORY = SGP/SGP4

EPOCH          = 2025-12-07T02:41:30.840864
MEAN_MOTION    = 14.86546969
ECCENTRICITY   = .00189183
INCLINATION    = 82.5687
RA_OF_ASC_NODE = 227.9744
ARG_OF_PERICENTER = 247.1089
MEAN_ANOMALY   = 272.8582

EPHEMERIS_TYPE = 0
CLASSIFICATION_TYPE = U
NORAD_CAT_ID   = 13553
ELEMENT_SET_NO = 999
REV_AT_EPOCH   = 31517
BSTAR          = .99221465E-4
MEAN_MOTION_DOT = .905E-5
MEAN_MOTION_DDOT = 0

CCSDS_OMM_VERS = 2.0
CREATION_DATE  = 
ORIGINATOR     = 

OBJECT_NAME    = SL-3 R/B
OBJECT_ID      = 1983-010B
CENTER_NAME    = EARTH
REF_FRAME      = TEME
TIME_SYSTEM    = UTC
MEAN_ELEMENT_THEORY = SGP/SGP4

EPOCH          = 2025-12-07T03:09:13.379904
MEAN_MOTION    = 15.43235870
ECCENTRICITY   = .00174094
INCLINATION    = 81.1040
RA_OF_ASC_NODE = 115.4633
ARG_OF_PERICENTER = 10.6912
MEAN_ANOMALY   = 349.4698

EPHEMERIS_TYPE = 0
CLASSIFICATION_TYPE = U
NORAD_CAT_ID   = 13819
ELEMENT_SET_NO = 999
REV_AT_EPOCH   = 34365
BSTAR          = .46508621E-3
MEAN_MOTION_DOT = .20826E-3
MEAN_MOTION_DDOT = 0

CCSDS_OMM_VERS = 2.0
CREATION_DATE  = 
ORIGINATOR     = 

OBJECT_NAME    = SL-3 R/B
OBJECT_ID      = 1983-075B
CENTER_NAME    = EARTH
REF_FRAME      = TEME
TIME_SYSTEM    = UTC
MEAN_ELEMENT_THEORY = SGP/SGP4

EPOCH          = 2025-12-07T06:00:02.700864
MEAN_MOTION    = 15.35970962
ECCENTRICITY   = .00220943
INCLINATION    = 97.6100
RA_OF_ASC_NODE = 337.5495
ARG_OF_PERICENTER = 195.2806
MEAN_ANOMALY   = 164.7772

EPHEMERIS_TYPE = 0
CLASSIFICATION_TYPE = U
NORAD_CAT_ID   = 14208
ELEMENT_SET_NO = 999
REV_AT_EPOCH   = 31595
BSTAR          = .42571213E-3
MEAN_MOTION_DOT = .14953E-3
MEAN_MOTION_DDOT = 0

CCSDS_OMM_VERS = 2.0
CREATION_DATE  = 
ORIGINATOR     = 

OBJECT_NAME    = COSMOS 1536
OBJECT_ID      = 1984-013A
CENTER_NAME    = EARTH
REF_FRAME      = TEME
TIME_SYSTEM    = UTC
MEAN_ELEMENT_THEORY = SGP/SGP4

EPOCH          = 2025-12-07T00:32:28.764096
MEAN_MOTION    = 15.22423521
ECCENTRICITY   = .00132922
INCLINATION    = 82.5452
RA_OF_ASC_NODE = 199.8339
ARG_OF_PERICENTER = 247.7461
MEAN_ANOMALY   = 112.2366

EPHEMERIS_TYPE = 0
CLASSIFICATION_TYPE = U
NORAD_CAT_ID   = 14699
ELEMENT_SET_NO = 999
REV_AT_EPOCH   = 25851
BSTAR          = .39487E-3
MEAN_MOTION_DOT = .9181E-4
MEAN_MOTION_DDOT = 0

CCSDS_OMM_VERS = 2.0
CREATION_DATE  = 
ORIGINATOR     = 

OBJECT_NAME    = SL-14 R/B
OBJECT_ID      = 1984-027B
CENTER_NAME    = EARTH
REF_FRAME      = TEME
TIME_SYSTEM    = UTC
MEAN_ELEMENT_THEORY = SGP/SGP4

EPOCH          = 2025-12-07T05:39:05.295744
MEAN_MOTION    = 14.85865414
ECCENTRICITY   = .00164251
INCLINATION    = 82.5408
RA_OF_ASC_NODE = 331.7185
ARG_OF_PERICENTER = 280.8416
MEAN_ANOMALY   = 79.0952

EPHEMERIS_TYPE = 0
CLASSIFICATION_TYPE = U
NORAD_CAT_ID   = 14820
ELEMENT_SET_NO = 999
REV_AT_EPOCH   = 23390
BSTAR          = .10911647E-3
MEAN_MOTION_DOT = .976E-5
MEAN_MOTION_DDOT = 0

CCSDS_OMM_VERS = 2.0
CREATION_DATE  = 
ORIGINATOR     = 

OBJECT_NAME    = SL-8 R/B
OBJECT_ID      = 1985-006B
CENTER_NAME    = EARTH
REF_FRAME      = TEME
TIME_SYSTEM    = UTC
MEAN_ELEMENT_THEORY = SGP/SGP4

EPOCH          = 2025-12-07T05:57:40.450176
MEAN_MOTION    = 14.37716406
ECCENTRICITY   = .00184421
INCLINATION    = 74.0466
RA_OF_ASC_NODE = 71.2377
ARG_OF_PERICENTER = 4.8728
MEAN_ANOMALY   = 25.5358

EPHEMERIS_TYPE = 0
CLASSIFICATION_TYPE = U
NORAD_CAT_ID   = 15483
ELEMENT_SET_NO = 999
REV_AT_EPOCH   = 14074
BSTAR          = .17990841E-3
MEAN_MOTION_DOT = .516E-5
MEAN_MOTION_DDOT = 0

CCSDS_OMM_VERS = 2.0
CREATION_DATE  = 
ORIGINATOR     = 

OBJECT_NAME    = SL-12 R/B(2)
OBJECT_ID      = 1985-042D
CENTER_NAME    = EARTH
REF_FRAME      = TEME
TIME_SYSTEM    = UTC
MEAN_ELEMENT_THEORY = SGP/SGP4

EPOCH          = 2025-12-07T06:41:13.083360
MEAN_MOTION    = 14.21949461
ECCENTRICITY   = .0037705
INCLINATION    = 71.1084
RA_OF_ASC_NODE = 282.9567
ARG_OF_PERICENTER = 269.5639
MEAN_ANOMALY   = 252.8313

EPHEMERIS_TYPE = 0
CLASSIFICATION_TYPE = U
NORAD_CAT_ID   = 15772
ELEMENT_SET_NO = 999
REV_AT_EPOCH   = 10125
BSTAR          = .15843975E-3
MEAN_MOTION_DOT = .304E-5
MEAN_MOTION_DDOT = 0

CCSDS_OMM_VERS = 2.0
CREATION_DATE  = 
ORIGINATOR     = 

OBJECT_NAME    = SL-14 R/B
OBJECT_ID      = 1985-069B
CENTER_NAME    = EARTH
REF_FRAME      = TEME
TIME_SYSTEM    = UTC
MEAN_ELEMENT_THEORY = SGP/SGP4

EPOCH          = 2025-12-07T07:34:37.713792
MEAN_MOTION    = 14.86314559
ECCENTRICITY   = .00198566
INCLINATION    = 82.5263
RA_OF_ASC_NODE = 111.8018
ARG_OF_PERICENTER = 135.3741
MEAN_ANOMALY   = 224.9078

EPHEMERIS_TYPE = 0
CLASSIFICATION_TYPE = U
NORAD_CAT_ID   = 15945
ELEMENT_SET_NO = 999
REV_AT_EPOCH   = 15911
BSTAR          = .12577835E-3
MEAN_MOTION_DOT = .1135E-4
MEAN_MOTION_DDOT = 0

CCSDS_OMM_VERS = 2.0
CREATION_DATE  = 
ORIGINATOR     = 

OBJECT_NAME    = SL-16 R/B
OBJECT_ID      = 1985-097B
CENTER_NAME    = EARTH
REF_FRAME      = TEME
TIME_SYSTEM    = UTC
MEAN_ELEMENT_THEORY = SGP/SGP4

EPOCH          = 2025-12-06T23:46:11.054208
MEAN_MOTION    = 14.16581670
ECCENTRICITY   = .00063162
INCLINATION    = 71.0028
RA_OF_ASC_NODE = 335.7076
ARG_OF_PERICENTER = 19.8901
MEAN_ANOMALY   = 47.3914

EPHEMERIS_TYPE = 0
CLASSIFICATION_TYPE = U
NORAD_CAT_ID   = 16182
ELEMENT_SET_NO = 999
REV_AT_EPOCH   = 7410
BSTAR          = .17088607E-4
MEAN_MOTION_DOT = -.14E-6
MEAN_MOTION_DDOT = 0

CCSDS_OMM_VERS = 2.0
CREATION_DATE  = 
ORIGINATOR     = 

OBJECT_NAME    = SL-14 R/B
OBJECT_ID      = 1986-006B
CENTER_NAME    = EARTH
REF_FRAME      = TEME
TIME_SYSTEM    = UTC
MEAN_ELEMENT_THEORY = SGP/SGP4

EPOCH          = 2025-12-07T07:34:09.681312
MEAN_MOTION    = 14.86661136
ECCENTRICITY   = .00757352
INCLINATION    = 82.5265
RA_OF_ASC_NODE = 346.6557
ARG_OF_PERICENTER = 218.0051
MEAN_ANOMALY   = 141.5810

EPHEMERIS_TYPE = 0
CLASSIFICATION_TYPE = U
NORAD_CAT_ID   = 16496
ELEMENT_SET_NO = 999
REV_AT_EPOCH   = 13548
BSTAR          = .1276258E-3
MEAN_MOTION_DOT = .1219E-4
MEAN_MOTION_DDOT = 0

CCSDS_OMM_VERS = 2.0
CREATION_DATE  = 
ORIGINATOR     = 

OBJECT_NAME    = COSMOS 1743
OBJECT_ID      = 1986-034A
CENTER_NAME    = EARTH
REF_FRAME      = TEME
TIME_SYSTEM    = UTC
MEAN_ELEMENT_THEORY = SGP/SGP4

EPOCH          = 2025-12-06T23:31:38.060832
MEAN_MOTION    = 15.51713098
ECCENTRICITY   = .00047281
INCLINATION    = 82.5341
RA_OF_ASC_NODE = 170.5718
ARG_OF_PERICENTER = 278.8374
MEAN_ANOMALY   = 81.2342

EPHEMERIS_TYPE = 0
CLASSIFICATION_TYPE = U
NORAD_CAT_ID   = 16719
ELEMENT_SET_NO = 999
REV_AT_EPOCH   = 16584
BSTAR          = .63878528E-3
MEAN_MOTION_DOT = .38194E-3
MEAN_MOTION_DDOT = 0

